NORAD_CAT_ID,OBJECT_NAME,OBJECT_TYPE,EPOCH,MEAN_MOTION,ECCENTRICITY,INCLINATION,RA_OF_ASC_NODE,ARG_OF_PERICENTER,MEAN_ANOMALY,BSTAR,MEAN_MOTION_DOT,MEAN_MOTION_DDOT,TLE_LINE0,TLE_LINE1,TLE_LINE2,SEMIMAJOR_AXIS,PERIOD,APOGEE,PERIGEE,DECAYED
53149.0,STARLINK-4021,PAYLOAD,2024-05-28 10:41:41,15.08844749,0.0001354,53.2157,203.3827,82.836,277.2786,0.00010803,1.432e-05,0.0,0 STARLINK-4021,1 53149U 22083T   24149.44562486  .00001432  00000-0  10803-3 0  9991,2 53149  53.2157 203.3827 0001354  82.8360 277.2786 15.08844749103195,6917.866,95.437,540.668,538.794,0.0
53149.0,STARLINK-4021,PAYLOAD,2024-05-29 04:10:56,15.08842801,0.0001324,53.2153,200.1116,86.5752,273.5391,5.6567e-05,6.13e-06,0.0,0 STARLINK-4021,1 53149U 22083T   24150.17426346  .00000613  00000-0  56567-4 0  9995,2 53149  53.2153 200.1116 0001324  86.5752 273.5391 15.08842801103930,6917.872,95.437,540.653,538.821,0.0
53149.0,STARLINK-4021,PAYLOAD,2024-05-29 08:57:05,15.08843088,0.0001301,53.2165,199.2194,90.9172,269.1969,0.00010704,1.416e-05,0.0,0 STARLINK-4021,1 53149U 22083T   24150.37298462  .00001416  00000-0  10704-3 0  9997,2 53149  53.2165 199.2194 0001301  90.9172 269.1969 15.08843088103331,6917.871,95.437,540.636,538.836,0.0
53149.0,STARLINK-4021,PAYLOAD,2024-05-30 11:58:39,15.08842301,0.0001337,53.2163,194.1644,95.1503,264.9642,5.389e-05,5.7e-06,0.0,0 STARLINK-4021,1 53149U 22083T   24151.49906678  .00000570  00000-0  53890-4 0  9990,2 53149  53.2163 194.1644 0001337  95.1503 264.9642 15.08842301104134,6917.873,95.437,540.663,538.813,0.0
53149.0,STARLINK-4021,PAYLOAD,2024-05-31 11:49:26,15.08842263,0.000133,53.2163,189.7024,90.9627,269.1517,7.1407e-05,8.49e-06,0.0,0 STARLINK-4021,1 53149U 22083T   24152.49266613  .00000849  00000-0  71407-4 0  9992,2 53149  53.2163 189.7024 0001330  90.9627 269.1517 15.08842263103650,6917.873,95.437,540.659,538.818,0.0
53149.0,STARLINK-4021,PAYLOAD,2024-05-31 19:46:22,15.08842138,0.0001257,53.2158,188.2174,85.7968,274.3167,2.2325e-05,6.7e-07,0.0,0 STARLINK-4021,1 53149U 22083T   24152.82386703  .00000067  00000-0  22325-4 0  9999,2 53149  53.2158 188.2174 0001257  85.7968 274.3167 15.08842138104338,6917.874,95.437,540.608,538.869,0.0
53149.0,STARLINK-4021,PAYLOAD,2024-06-01 08:29:27,15.08838793,0.0001282,53.2155,185.8381,86.9266,273.1873,5.7844e-05,6.33e-06,0.0,0 STARLINK-4021,1 53149U 22083T   24153.35378955  .00000633  00000-0  57844-4 0  9991,2 53149  53.2155 185.8381 0001282  86.9266 273.1873 15.08838793103781,6917.884,95.438,540.636,538.862,0.0
53149.0,STARLINK-4021,PAYLOAD,2024-06-02 05:09:28,15.08839643,0.0001296,53.2158,181.9726,86.3403,273.7737,8.8663e-05,1.123e-05,0.0,0 STARLINK-4021,1 53149U 22083T   24154.21490901  .00001123  00000-0  88663-4 0  9991,2 53149  53.2158 181.9726 0001296  86.3403 273.7737 15.08839643104541,6917.881,95.438,540.643,538.85,0.0
53149.0,STARLINK-4021,PAYLOAD,2024-06-02 08:20:14,15.08842187,0.0001302,53.2159,181.3775,88.2947,271.8195,7.5713e-05,9.17e-06,0.0,0 STARLINK-4021,1 53149U 22083T   24154.34738779  .00000917  00000-0  75713-4 0  9995,2 53149  53.2159 181.3775 0001302  88.2947 271.8195 15.08842187103938,6917.874,95.437,540.639,538.838,0.0
53149.0,STARLINK-4021,PAYLOAD,2024-06-03 08:11:01,15.08837987,0.0001315,53.2159,176.9172,88.4575,271.6568,4.0214e-05,3.52e-06,0.0,0 STARLINK-4021,1 53149U 22083T   24155.34099312  .00000352  00000-0  40214-4 0  9990,2 53149  53.2159 176.9172 0001315  88.4575 271.6568 15.08837987104713,6917.887,95.438,540.661,538.842,0.0
53149.0,STARLINK-4021,PAYLOAD,2024-06-04 11:12:34,15.08846727,0.0001302,53.216,171.8621,88.994,271.1202,9.9112e-05,1.29e-05,0.0,0 STARLINK-4021,1 53149U 22083T   24156.46706541  .00001290  00000-0  99112-4 0  9996,2 53149  53.2160 171.8621 0001302  88.9940 271.1202 15.08846727104885,6917.86,95.437,540.626,538.824,0.0
53149.0,STARLINK-4021,PAYLOAD,2024-06-04 17:34:07,15.08843279,0.0001202,53.2151,170.6709,80.8335,279.2793,9.2393e-05,1.183e-05,0.0,0 STARLINK-4021,1 53149U 22083T   24156.73202740  .00001183  00000-0  92393-4 0  9993,2 53149  53.2151 170.6709 0001202  80.8335 279.2793 15.08843279104295,6917.87,95.437,540.567,538.904,0.0
53149.0,STARLINK-4021,PAYLOAD,2024-06-05 04:41:49,15.08836636,0.0001279,53.2158,168.5906,85.5551,274.5587,5.0059e-05,5.09e-06,0.0,0 STARLINK-4021,1 53149U 22083T   24157.19571291  .00000509  00000-0  50059-4 0  9998,2 53149  53.2158 168.5906 0001279  85.5551 274.5587 15.08836636104998,6917.891,95.438,540.64,538.871,0.0
53149.0,STARLINK-4021,PAYLOAD,2024-06-05 07:52:35,15.08838056,0.0001273,53.216,167.9962,86.3851,273.7287,5.7397e-05,6.26e-06,0.0,0 STARLINK-4021,1 53149U 22083T   24157.32819182  .00000626  00000-0  57397-4 0  9999,2 53149  53.2160 167.9962 0001273  86.3851 273.7287 15.08838056104381,6917.886,95.438,540.632,538.871,0.0
53149.0,STARLINK-4021,PAYLOAD,2024-06-05 17:24:54,15.08837004,0.0001267,53.2157,166.2123,86.5274,273.5863,2.1549e-05,5.5e-07,0.0,0 STARLINK-4021,1 53149U 22083T   24157.72563417  .00000055  00000-0  21549-4 0  9996,2 53149  53.2157 166.2123 0001267  86.5274 273.5863 15.08837004104449,6917.89,95.438,540.631,538.878,0.0
53149.0,STARLINK-4021,PAYLOAD,2024-06-06 04:32:37,15.0883251,0.0001328,53.2159,164.1308,87.5134,272.601,-5.4578e-05,-1.156e-05,0.0,0 STARLINK-4021,1 53149U 22083T   24158.18932077 -.00001156  00000-0 -54578-4 0  9992,2 53149  53.2159 164.1308 0001328  87.5134 272.6010 15.08832510105146,6917.903,95.438,540.687,538.85,0.0
53149.0,STARLINK-4021,PAYLOAD,2024-06-06 07:43:23,15.08829405,0.0001327,53.2163,163.5355,83.944,276.1703,-8.6833e-05,-1.669e-05,0.0,0 STARLINK-4021,1 53149U 22083T   24158.32180412 -.00001669  00000-0 -86833-4 0  9994,2 53149  53.2163 163.5355 0001327  83.9440 276.1703 15.08829405104534,6917.913,95.438,540.696,538.86,0.0
53149.0,STARLINK-4021,PAYLOAD,2024-06-07 09:09:34,15.08829288,0.0001251,53.2159,158.7779,88.0469,272.0666,-4.7943e-06,-3.64e-06,0.0,0 STARLINK-4021,1 53149U 22083T   24159.38164929 -.00000364  00000-0 -47943-5 0  9997,2 53149  53.2159 158.7779 0001251  88.0469 272.0666 15.08829288105328,6917.913,95.438,540.644,538.913,0.0
53149.0,STARLINK-4021,PAYLOAD,2024-06-07 17:06:30,15.08833146,0.0001273,53.2162,157.2913,90.1644,269.9494,4.141e-05,3.71e-06,0.0,0 STARLINK-4021,1 53149U 22083T   24159.71284744  .00000371  00000-0  41410-4 0  9990,2 53149  53.2162 157.2913 0001273  90.1644 269.9494 15.08833146104746,6917.901,95.438,540.647,538.886,0.0
53149.0,STARLINK-4021,PAYLOAD,2024-06-08 05:49:34,15.08835298,0.0001192,53.2157,154.9117,91.4274,268.6855,0.00012314,1.672e-05,0.0,0 STARLINK-4021,1 53149U 22083T   24160.24276603  .00001672  00000-0  12314-3 0  9990,2 53149  53.2157 154.9117 0001192  91.4274 268.6855 15.08835298105459,6917.895,95.438,540.584,538.935,0.0
53149.0,STARLINK-4021,PAYLOAD,2024-06-08 07:24:58,15.08834536,0.000127,53.2159,154.6148,90.1552,269.9585,0.0001752,2.501e-05,0.0,0 STARLINK-4021,1 53149U 22083T   24160.30900553  .00002501  00000-0  17520-3 0  9991,2 53149  53.2159 154.6148 0001270  90.1552 269.9585 15.08834536104833,6917.897,95.438,540.641,538.884,0.0
53149.0,STARLINK-4021,PAYLOAD,2024-06-08 16:57:16,15.08839564,0.0001267,53.2159,152.8307,89.9621,270.1516,0.00018625,2.677e-05,0.0,0 STARLINK-4021,1 53149U 22083T   24160.70644331  .00002677  00000-0  18625-3 0  9995,2 53149  53.2159 152.8307 0001267  89.9621 270.1516 15.08839564104899,6917.882,95.438,540.623,538.87,0.0
53149.0,STARLINK-4021,PAYLOAD,2024-06-09 05:40:21,15.08847334,0.0001267,53.2158,150.4515,90.703,269.4107,0.00019985,2.895e-05,0.0,0 STARLINK-4021,1 53149U 22083T   24161.23635851  .00002895  00000-0  19985-3 0  9993,2 53149  53.2158 150.4515 0001267  90.7030 269.4107 15.08847334105608,6917.858,95.437,540.599,538.846,0.0
53149.0,STARLINK-4021,PAYLOAD,2024-06-10 08:41:54,15.08852903,0.0001271,53.2158,145.3955,94.0041,266.1096,8.1407e-05,1.008e-05,0.0,0 STARLINK-4021,1 53149U 22083T   24162.36243287  .00001008  00000-0  81407-4 0  9990,2 53149  53.2158 145.3955 0001271  94.0041 266.1096 15.08852903105770,6917.841,95.437,540.585,538.827,0.0
53149.0,STARLINK-4021,PAYLOAD,2024-06-11 05:21:55,15.08843667,0.0001314,53.2157,141.5296,89.9099,270.2044,-4.8999e-05,-1.068e-05,0.0,0 STARLINK-4021,1 53149U 22083T   24163.22355945 -.00001068  00000-0 -48999-4 0  9998,2 53149  53.2157 141.5296 0001314  89.9099 270.2044 15.08843667105900,6917.869,95.437,540.643,538.825,0.0
53149.0,STARLINK-4021,PAYLOAD,2024-06-12 05:12:42,15.08842248,0.0001243,53.2151,137.0695,86.5548,273.5586,-2.5791e-05,-6.98e-06,0.0,0 STARLINK-4021,1 53149U 22083T   24164.21716009 -.00000698  00000-0 -25791-4 0  9993,2 53149  53.2151 137.0695 0001243  86.5548 273.5586 15.08842248105428,6917.874,95.437,540.598,538.879,0.0
53149.0,STARLINK-4021,PAYLOAD,2024-06-12 08:23:28,15.08841871,0.0001361,53.2161,136.4747,89.956,270.1588,3.8364e-06,-2.27e-06,0.0,0 STARLINK-4021,1 53149U 22083T   24164.34963944 -.00000227  00000-0  38364-5 0  9997,2 53149  53.2161 136.4747 0001361  89.9560 270.1588 15.08841871106070,6917.875,95.437,540.681,538.798,0.0
53149.0,STARLINK-4021,PAYLOAD,2024-06-13 05:03:30,15.08835739,0.000132,53.2164,132.6101,89.4967,270.6177,5.0024e-05,5.08e-06,0.0,0 STARLINK-4021,1 53149U 22083T   24165.21076508  .00000508  00000-0  50024-4 0  9992,2 53149  53.2164 132.6101 0001320  89.4967 270.6177 15.08835739106206,6917.893,95.438,540.672,538.845,0.0
53149.0,STARLINK-4021,PAYLOAD,2024-06-13 14:35:48,15.08836077,0.0001292,53.2163,130.8254,87.2074,272.9066,6.2444e-05,7.06e-06,0.0,0 STARLINK-4021,1 53149U 22083T   24165.60820534  .00000706  00000-0  62444-4 0  9990,2 53149  53.2163 130.8254 0001292  87.2074 272.9066 15.08836077105631,6917.892,95.438,540.651,538.864,0.0
53149.0,STARLINK-4021,PAYLOAD,2024-06-14 14:26:36,15.0883946,0.0001332,53.217,126.3657,92.22,267.8944,3.4288e-05,2.58e-06,0.0,0 STARLINK-4021,1 53149U 22083T   24166.60180667  .00000258  00000-0  34288-4 0  9994,2 53149  53.2170 126.3657 0001332  92.2200 267.8944 15.08839460105781,6917.882,95.438,540.669,538.826,0.0
